[{"OBJECT_NAME":"SAPPHIRE","OBJECT_ID":"2013-009C","EPOCH":"2026-03-05T11:52:23.877984","MEAN_MOTION":14.35206915,"ECCENTRICITY":0.0010951,"INCLINATION":98.4217,"RA_OF_ASC_NODE":246.4222,"ARG_OF_PERICENTER":192.2041,"MEAN_ANOMALY":167.8881,"EPHEMERIS_TYPE":0,"CLASSIFICATION_TYPE":"U","NORAD_CAT_ID":39088,"ELEMENT_SET_NO":999,"REV_AT_EPOCH":68170,"BSTAR":0.00010713,"MEAN_MOTION_DOT":2.64e-6,"MEAN_MOTION_DDOT":0},{"OBJECT_NAME":"PRAETORIAN SDA_602","OBJECT_ID":"2025-203A","EPOCH":"2026-03-05T14:19:29.735616","MEAN_MOTION":13.84332024,"ECCENTRICITY":0.0007176,"INCLINATION":81.3004,"RA_OF_ASC_NODE":106.7321,"ARG_OF_PERICENTER":111.9028,"MEAN_ANOMALY":248.2892,"EPHEMERIS_TYPE":0,"CLASSIFICATION_TYPE":"U","NORAD_CAT_ID":65565,"ELEMENT_SET_NO":999,"REV_AT_EPOCH":2436,"BSTAR":0.00021773,"MEAN_MOTION_DOT":2.55e-6,"MEAN_MOTION_DDOT":0},{"OBJECT_NAME":"PRAETORIAN SDA_603","OBJECT_ID":"2025-203B","EPOCH":"2026-03-05T14:11:00.652128","MEAN_MOTION":13.83902764,"ECCENTRICITY":0.0010808,"INCLINATION":81.3008,"RA_OF_ASC_NODE":106.5788,"ARG_OF_PERICENTER":112.3796,"MEAN_ANOMALY":247.8507,"EPHEMERIS_TYPE":0,"CLASSIFICATION_TYPE":"U","NORAD_CAT_ID":65566,"ELEMENT_SET_NO":999,"REV_AT_EPOCH":2437,"BSTAR":0.00022402,"MEAN_MOTION_DOT":2.6e-6,"MEAN_MOTION_DDOT":0},{"OBJECT_NAME":"PRAETORIAN SDA_604","OBJECT_ID":"2025-203C","EPOCH":"2026-03-05T14:50:46.244256","MEAN_MOTION":13.83033718,"ECCENTRICITY":0.0006734,"INCLINATION":81.3026,"RA_OF_ASC_NODE":106.8067,"ARG_OF_PERICENTER":117.6351,"MEAN_ANOMALY":242.549,"EPHEMERIS_TYPE":0,"CLASSIFICATION_TYPE":"U","NORAD_CAT_ID":65567,"ELEMENT_SET_NO":999,"REV_AT_EPOCH":2436,"BSTAR":5.0474e-5,"MEAN_MOTION_DOT":6.7e-7,"MEAN_MOTION_DDOT":0},{"OBJECT_NAME":"PRAETORIAN SDA_605","OBJECT_ID":"2025-203D","EPOCH":"2026-03-05T14:45:48.027744","MEAN_MOTION":13.8352831,"ECCENTRICITY":0.0009503,"INCLINATION":81.2988,"RA_OF_ASC_NODE":106.5787,"ARG_OF_PERICENTER":108.2031,"MEAN_ANOMALY":252.016,"EPHEMERIS_TYPE":0,"CLASSIFICATION_TYPE":"U","NORAD_CAT_ID":65568,"ELEMENT_SET_NO":999,"REV_AT_EPOCH":2437,"BSTAR":6.0529e-5,"MEAN_MOTION_DOT":7.9e-7,"MEAN_MOTION_DDOT":0},{"OBJECT_NAME":"PRAETORIAN SDA_606","OBJECT_ID":"2025-203E","EPOCH":"2026-03-05T14:24:59.687712","MEAN_MOTION":13.83530692,"ECCENTRICITY":0.0007082,"INCLINATION":81.3026,"RA_OF_ASC_NODE":106.7807,"ARG_OF_PERICENTER":109.233,"MEAN_ANOMALY":250.9593,"EPHEMERIS_TYPE":0,"CLASSIFICATION_TYPE":"U","NORAD_CAT_ID":65569,"ELEMENT_SET_NO":999,"REV_AT_EPOCH":2436,"BSTAR":0.0001957,"MEAN_MOTION_DOT":2.28e-6,"MEAN_MOTION_DDOT":0},{"OBJECT_NAME":"PRAETORIAN SDA_607","OBJECT_ID":"2025-203F","EPOCH":"2026-03-05T14:22:31.710432","MEAN_MOTION":13.8446481,"ECCENTRICITY":0.0010086,"INCLINATION":81.301,"RA_OF_ASC_NODE":106.5981,"ARG_OF_PERICENTER":111.4968,"MEAN_ANOMALY":248.7265,"EPHEMERIS_TYPE":0,"CLASSIFICATION_TYPE":"U","NORAD_CAT_ID":65570,"ELEMENT_SET_NO":999,"REV_AT_EPOCH":2437,"BSTAR":0.00024544,"MEAN_MOTION_DOT":2.87e-6,"MEAN_MOTION_DDOT":0},{"OBJECT_NAME":"PRAETORIAN SDA_608","OBJECT_ID":"2025-203G","EPOCH":"2026-03-05T14:41:33.759456","MEAN_MOTION":13.83886307,"ECCENTRICITY":0.0007157,"INCLINATION":81.2979,"RA_OF_ASC_NODE":106.703,"ARG_OF_PERICENTER":117.2235,"MEAN_ANOMALY":242.9651,"EPHEMERIS_TYPE":0,"CLASSIFICATION_TYPE":"U","NORAD_CAT_ID":65571,"ELEMENT_SET_NO":999,"REV_AT_EPOCH":2436,"BSTAR":5.6282e-5,"MEAN_MOTION_DOT":7.4e-7,"MEAN_MOTION_DDOT":0},{"OBJECT_NAME":"PRAETORIAN SDA_609","OBJECT_ID":"2025-203H","EPOCH":"2026-03-05T13:52:56.053920","MEAN_MOTION":13.84313039,"ECCENTRICITY":0.0008248,"INCLINATION":81.3026,"RA_OF_ASC_NODE":106.7429,"ARG_OF_PERICENTER":111.1767,"MEAN_ANOMALY":249.0272,"EPHEMERIS_TYPE":0,"CLASSIFICATION_TYPE":"U","NORAD_CAT_ID":65572,"ELEMENT_SET_NO":999,"REV_AT_EPOCH":2436,"BSTAR":0.0002407,"MEAN_MOTION_DOT":2.81e-6,"MEAN_MOTION_DDOT":0},{"OBJECT_NAME":"PRAETORIAN SDA_610","OBJECT_ID":"2025-203J","EPOCH":"2026-03-05T14:18:48.871008","MEAN_MOTION":13.8401063,"ECCENTRICITY":0.0007779,"INCLINATION":81.2981,"RA_OF_ASC_NODE":106.6839,"ARG_OF_PERICENTER":112.7029,"MEAN_ANOMALY":247.4951,"EPHEMERIS_TYPE":0,"CLASSIFICATION_TYPE":"U","NORAD_CAT_ID":65573,"ELEMENT_SET_NO":999,"REV_AT_EPOCH":2436,"BSTAR":6.6642e-5,"MEAN_MOTION_DOT":8.6e-7,"MEAN_MOTION_DDOT":0},{"OBJECT_NAME":"PRAETORIAN SDA_611","OBJECT_ID":"2025-203K","EPOCH":"2026-03-05T14:59:07.455840","MEAN_MOTION":13.83295309,"ECCENTRICITY":0.0006816,"INCLINATION":81.2972,"RA_OF_ASC_NODE":106.729,"ARG_OF_PERICENTER":119.614,"MEAN_ANOMALY":240.5696,"EPHEMERIS_TYPE":0,"CLASSIFICATION_TYPE":"U","NORAD_CAT_ID":65574,"ELEMENT_SET_NO":999,"REV_AT_EPOCH":2436,"BSTAR":-1.7436e-6,"MEAN_MOTION_DOT":1.0e-7,"MEAN_MOTION_DDOT":0},{"OBJECT_NAME":"PRAETORIAN SDA_612","OBJECT_ID":"2025-203L","EPOCH":"2026-03-05T14:22:15.572640","MEAN_MOTION":13.85043557,"ECCENTRICITY":0.0010462,"INCLINATION":81.2998,"RA_OF_ASC_NODE":106.5938,"ARG_OF_PERICENTER":112.0788,"MEAN_ANOMALY":248.1481,"EPHEMERIS_TYPE":0,"CLASSIFICATION_TYPE":"U","NORAD_CAT_ID":65575,"ELEMENT_SET_NO":999,"REV_AT_EPOCH":2437,"BSTAR":0.00024671,"MEAN_MOTION_DOT":2.91e-6,"MEAN_MOTION_DDOT":0},{"OBJECT_NAME":"PRAETORIAN SDA_613","OBJECT_ID":"2025-203M","EPOCH":"2026-03-05T14:25:50.655072","MEAN_MOTION":13.82986602,"ECCENTRICITY":0.0007179,"INCLINATION":81.297,"RA_OF_ASC_NODE":106.6902,"ARG_OF_PERICENTER":114.8357,"MEAN_ANOMALY":245.3547,"EPHEMERIS_TYPE":0,"CLASSIFICATION_TYPE":"U","NORAD_CAT_ID":65576,"ELEMENT_SET_NO":999,"REV_AT_EPOCH":2436,"BSTAR":0.00021341,"MEAN_MOTION_DOT":2.45e-6,"MEAN_MOTION_DDOT":0},{"OBJECT_NAME":"PRAETORIAN SDA_614","OBJECT_ID":"2025-203N","EPOCH":"2026-03-05T15:22:39.377856","MEAN_MOTION":13.84765087,"ECCENTRICITY":0.0008378,"INCLINATION":81.2985,"RA_OF_ASC_NODE":106.6059,"ARG_OF_PERICENTER":110.599,"MEAN_ANOMALY":249.6066,"EPHEMERIS_TYPE":0,"CLASSIFICATION_TYPE":"U","NORAD_CAT_ID":65577,"ELEMENT_SET_NO":999,"REV_AT_EPOCH":2438,"BSTAR":4.8302e-5,"MEAN_MOTION_DOT":6.6e-7,"MEAN_MOTION_DDOT":0},{"OBJECT_NAME":"PRAETORIAN SDA_615","OBJECT_ID":"2025-203P","EPOCH":"2026-03-05T14:12:29.149056","MEAN_MOTION":13.84422194,"ECCENTRICITY":0.0010235,"INCLINATION":81.2995,"RA_OF_ASC_NODE":106.55,"ARG_OF_PERICENTER":110.7923,"MEAN_ANOMALY":249.4331,"EPHEMERIS_TYPE":0,"CLASSIFICATION_TYPE":"U","NORAD_CAT_ID":65578,"ELEMENT_SET_NO":999,"REV_AT_EPOCH":2437,"BSTAR":0.0002392,"MEAN_MOTION_DOT":2.8e-6,"MEAN_MOTION_DDOT":0},{"OBJECT_NAME":"PRAETORIAN SDA_616","OBJECT_ID":"2025-203Q","EPOCH":"2026-03-05T14:58:00.800832","MEAN_MOTION":13.83298202,"ECCENTRICITY":0.0006588,"INCLINATION":81.3032,"RA_OF_ASC_NODE":106.8114,"ARG_OF_PERICENTER":120.8085,"MEAN_ANOMALY":239.3721,"EPHEMERIS_TYPE":0,"CLASSIFICATION_TYPE":"U","NORAD_CAT_ID":65579,"ELEMENT_SET_NO":999,"REV_AT_EPOCH":2436,"BSTAR":0.00026562,"MEAN_MOTION_DOT":3.03e-6,"MEAN_MOTION_DDOT":0}]
