SAPPHIRE                
1 39088U 13009C   26064.49472081  .00000264  00000+0  10713-3 0  9990
2 39088  98.4217 246.4222 0010951 192.2041 167.8881 14.35206915681705
PRAETORIAN SDA_602      
1 65565U 25203A   26064.59687194  .00000255  00000+0  21773-3 0  9990
2 65565  81.3004 106.7321 0007176 111.9028 248.2892 13.84332024 24368
PRAETORIAN SDA_603      
1 65566U 25203B   26064.59097977  .00000260  00000+0  22402-3 0  9991
2 65566  81.3008 106.5788 0010808 112.3796 247.8507 13.83902764 24373
PRAETORIAN SDA_604      
1 65567U 25203C   26064.61859079  .00000067  00000+0  50474-4 0  9990
2 65567  81.3026 106.8067 0006734 117.6351 242.5490 13.83033718 24361
PRAETORIAN SDA_605      
1 65568U 25203D   26064.61513921  .00000079  00000+0  60529-4 0  9999
2 65568  81.2988 106.5787 0009503 108.2031 252.0160 13.83528310 24370
PRAETORIAN SDA_606      
1 65569U 25203E   26064.60069083  .00000228  00000+0  19570-3 0  9999
2 65569  81.3026 106.7807 0007082 109.2330 250.9593 13.83530692 24365
PRAETORIAN SDA_607      
1 65570U 25203F   26064.59897813  .00000287  00000+0  24544-3 0  9991
2 65570  81.3010 106.5981 0010086 111.4968 248.7265 13.84464810 24372
PRAETORIAN SDA_608      
1 65571U 25203G   26064.61219629  .00000074  00000+0  56282-4 0  9997
2 65571  81.2979 106.7030 0007157 117.2235 242.9651 13.83886307 24361
PRAETORIAN SDA_609      
1 65572U 25203H   26064.57842655  .00000281  00000+0  24070-3 0  9993
2 65572  81.3026 106.7429 0008248 111.1767 249.0272 13.84313039 24368
PRAETORIAN SDA_610      
1 65573U 25203J   26064.59639897  .00000086  00000+0  66642-4 0  9993
2 65573  81.2981 106.6839 0007779 112.7029 247.4951 13.84010630 24365
PRAETORIAN SDA_611      
1 65574U 25203K   26064.62439185  .00000010  00000+0 -17436-5 0  9992
2 65574  81.2972 106.7290 0006816 119.6140 240.5696 13.83295309 24366
PRAETORIAN SDA_612      
1 65575U 25203L   26064.59879135  .00000291  00000+0  24671-3 0  9999
2 65575  81.2998 106.5938 0010462 112.0788 248.1481 13.85043557 24374
PRAETORIAN SDA_613      
1 65576U 25203M   26064.60128073  .00000245  00000+0  21341-3 0  9990
2 65576  81.2970 106.6902 0007179 114.8357 245.3547 13.82986602 24365
PRAETORIAN SDA_614      
1 65577U 25203N   26064.64073354  .00000066  00000+0  48302-4 0  9994
2 65577  81.2985 106.6059 0008378 110.5990 249.6066 13.84765087 24382
PRAETORIAN SDA_615      
1 65578U 25203P   26064.59200404  .00000280  00000+0  23920-3 0  9993
2 65578  81.2995 106.5500 0010235 110.7923 249.4331 13.84422194 24378
PRAETORIAN SDA_616      
1 65579U 25203Q   26064.62362038  .00000303  00000+0  26562-3 0  9991
2 65579  81.3032 106.8114 0006588 120.8085 239.3721 13.83298202 24363
